DELTA 2 R/B(1)          
1 20453U 90008B   25348.17218624  .00044279  00000+0  70488-3 0  9999
2 20453  35.6079  11.2825 0111349 191.6765 168.1378 15.45356890912854
COSMOS 2058             
1 20465U 90010A   25348.34784749  .00006032  00000+0  36447-3 0  9992
2 20465  82.4667 131.4481 0008381 266.1650  93.8621 15.10490131929352
SL-14 R/B               
1 20466U 90010B   25348.29682294  .00000637  00000+0  74491-4 0  9996
2 20466  82.5020 347.5846 0018820 217.7160 142.2737 14.83473068915822
SL-14 R/B               
1 20511U 90018B   25348.30005744  .00000722  00000+0  87864-4 0  9999
2 20511  82.5211 302.9060 0016881  18.3946 341.7875 14.82048720909936
HST                     
1 20580U 90037B   25348.16361867  .00008710  00000+0  30099-3 0  9993
2 20580  28.4684 262.7979 0001796 257.7413 102.2981 15.28079920760215
SL-16 R/B               
1 20625U 90046B   25348.08906360 -.00000128  00000+0 -41699-4 0  9993
2 20625  70.9990 117.6876 0011844  70.6689 289.5713 14.15001114836281
COSMOS 2084             
1 20663U 90055A   25348.22909016  .00003656  00000+0  26757-3 0  9996
2 20663  62.7904 266.9182 0031499 174.9202 185.2225 15.05031905923459
SL-6 R/B(2)             
1 20666U 90055D   25347.89830798  .00002716  00000+0  21464-3 0  9997
2 20666  62.7826 185.4792 0012833 309.7745  50.2223 15.03082483925296
SL-8 R/B                
1 20775U 90078B   25348.27983991  .00024912  00000+0  77098-3 0  9996
2 20775  82.9047 327.9319 0371684 300.7291  55.7801 14.86019801796600
SL-8 R/B                
1 21088U 91006B   25348.21387133  .00000078  00000+0  62807-4 0  9996
2 21088  82.9426 233.6164 0021187 275.4989 196.7881 13.77490199752307
OKEAN-3                 
1 21397U 91039A   25348.27879489  .00004566  00000+0  32690-3 0  9993
2 21397  82.5176  59.5577 0013059 260.8121  99.1628 15.04132605852196
COSMOS 2151             
1 21422U 91042A   25348.29127098  .00002298  00000+0  18395-3 0  9996
2 21422  82.4958 166.0079 0012439 354.8304   5.2789 14.99693199850390
