CCSDS_OMM_VERS = 2.0
CREATION_DATE  = 
ORIGINATOR     = 

OBJECT_NAME    = DELTA 2 R/B(1)
OBJECT_ID      = 1990-008B
CENTER_NAME    = EARTH
REF_FRAME      = TEME
TIME_SYSTEM    = UTC
MEAN_ELEMENT_THEORY = SGP/SGP4

EPOCH          = 2025-12-14T04:07:56.891136
MEAN_MOTION    = 15.45356890
ECCENTRICITY   = .01113491
INCLINATION    = 35.6079
RA_OF_ASC_NODE = 11.2825
ARG_OF_PERICENTER = 191.6765
MEAN_ANOMALY   = 168.1378

EPHEMERIS_TYPE = 0
CLASSIFICATION_TYPE = U
NORAD_CAT_ID   = 20453
ELEMENT_SET_NO = 999
REV_AT_EPOCH   = 91285
BSTAR          = .70488209E-3
MEAN_MOTION_DOT = .44279E-3
MEAN_MOTION_DDOT = 0

CCSDS_OMM_VERS = 2.0
CREATION_DATE  = 
ORIGINATOR     = 

OBJECT_NAME    = COSMOS 2058
OBJECT_ID      = 1990-010A
CENTER_NAME    = EARTH
REF_FRAME      = TEME
TIME_SYSTEM    = UTC
MEAN_ELEMENT_THEORY = SGP/SGP4

EPOCH          = 2025-12-14T08:20:54.023136
MEAN_MOTION    = 15.10490131
ECCENTRICITY   = .00083818
INCLINATION    = 82.4667
RA_OF_ASC_NODE = 131.4481
ARG_OF_PERICENTER = 266.1650
MEAN_ANOMALY   = 93.8621

EPHEMERIS_TYPE = 0
CLASSIFICATION_TYPE = U
NORAD_CAT_ID   = 20465
ELEMENT_SET_NO = 999
REV_AT_EPOCH   = 92935
BSTAR          = .36447345E-3
MEAN_MOTION_DOT = .6032E-4
MEAN_MOTION_DDOT = 0

CCSDS_OMM_VERS = 2.0
CREATION_DATE  = 
ORIGINATOR     = 

OBJECT_NAME    = SL-14 R/B
OBJECT_ID      = 1990-010B
CENTER_NAME    = EARTH
REF_FRAME      = TEME
TIME_SYSTEM    = UTC
MEAN_ELEMENT_THEORY = SGP/SGP4

EPOCH          = 2025-12-14T07:07:25.502016
MEAN_MOTION    = 14.83473068
ECCENTRICITY   = .00188207
INCLINATION    = 82.5020
RA_OF_ASC_NODE = 347.5846
ARG_OF_PERICENTER = 217.7160
MEAN_ANOMALY   = 142.2737

EPHEMERIS_TYPE = 0
CLASSIFICATION_TYPE = U
NORAD_CAT_ID   = 20466
ELEMENT_SET_NO = 999
REV_AT_EPOCH   = 91582
BSTAR          = .74490811E-4
MEAN_MOTION_DOT = .637E-5
MEAN_MOTION_DDOT = 0

CCSDS_OMM_VERS = 2.0
CREATION_DATE  = 
ORIGINATOR     = 

OBJECT_NAME    = SL-14 R/B
OBJECT_ID      = 1990-018B
CENTER_NAME    = EARTH
REF_FRAME      = TEME
TIME_SYSTEM    = UTC
MEAN_ELEMENT_THEORY = SGP/SGP4

EPOCH          = 2025-12-14T07:12:04.962816
MEAN_MOTION    = 14.82048720
ECCENTRICITY   = .00168816
INCLINATION    = 82.5211
RA_OF_ASC_NODE = 302.9060
ARG_OF_PERICENTER = 18.3946
MEAN_ANOMALY   = 341.7875

EPHEMERIS_TYPE = 0
CLASSIFICATION_TYPE = U
NORAD_CAT_ID   = 20511
ELEMENT_SET_NO = 999
REV_AT_EPOCH   = 90993
BSTAR          = .87864237E-4
MEAN_MOTION_DOT = .722E-5
MEAN_MOTION_DDOT = 0

CCSDS_OMM_VERS = 2.0
CREATION_DATE  = 
ORIGINATOR     = 

OBJECT_NAME    = HST
OBJECT_ID      = 1990-037B
CENTER_NAME    = EARTH
REF_FRAME      = TEME
TIME_SYSTEM    = UTC
MEAN_ELEMENT_THEORY = SGP/SGP4

EPOCH          = 2025-12-14T03:55:36.653088
MEAN_MOTION    = 15.28079920
ECCENTRICITY   = .00017963
INCLINATION    = 28.4684
RA_OF_ASC_NODE = 262.7979
ARG_OF_PERICENTER = 257.7413
MEAN_ANOMALY   = 102.2981

EPHEMERIS_TYPE = 0
CLASSIFICATION_TYPE = U
NORAD_CAT_ID   = 20580
ELEMENT_SET_NO = 999
REV_AT_EPOCH   = 76021
BSTAR          = .30099192E-3
MEAN_MOTION_DOT = .871E-4
MEAN_MOTION_DDOT = 0

CCSDS_OMM_VERS = 2.0
CREATION_DATE  = 
ORIGINATOR     = 

OBJECT_NAME    = SL-16 R/B
OBJECT_ID      = 1990-046B
CENTER_NAME    = EARTH
REF_FRAME      = TEME
TIME_SYSTEM    = UTC
MEAN_ELEMENT_THEORY = SGP/SGP4

EPOCH          = 2025-12-14T02:08:15.095040
MEAN_MOTION    = 14.15001114
ECCENTRICITY   = .00118446
INCLINATION    = 70.9990
RA_OF_ASC_NODE = 117.6876
ARG_OF_PERICENTER = 70.6689
MEAN_ANOMALY   = 289.5713

EPHEMERIS_TYPE = 0
CLASSIFICATION_TYPE = U
NORAD_CAT_ID   = 20625
ELEMENT_SET_NO = 999
REV_AT_EPOCH   = 83628
BSTAR          = -.4169903E-4
MEAN_MOTION_DOT = -.128E-5
MEAN_MOTION_DDOT = 0

CCSDS_OMM_VERS = 2.0
CREATION_DATE  = 
ORIGINATOR     = 

OBJECT_NAME    = COSMOS 2084
OBJECT_ID      = 1990-055A
CENTER_NAME    = EARTH
REF_FRAME      = TEME
TIME_SYSTEM    = UTC
MEAN_ELEMENT_THEORY = SGP/SGP4

EPOCH          = 2025-12-14T05:29:53.389824
MEAN_MOTION    = 15.05031905
ECCENTRICITY   = .00314998
INCLINATION    = 62.7904
RA_OF_ASC_NODE = 266.9182
ARG_OF_PERICENTER = 174.9202
MEAN_ANOMALY   = 185.2225

EPHEMERIS_TYPE = 0
CLASSIFICATION_TYPE = U
NORAD_CAT_ID   = 20663
ELEMENT_SET_NO = 999
REV_AT_EPOCH   = 92345
BSTAR          = .26756726E-3
MEAN_MOTION_DOT = .3656E-4
MEAN_MOTION_DDOT = 0

CCSDS_OMM_VERS = 2.0
CREATION_DATE  = 
ORIGINATOR     = 

OBJECT_NAME    = SL-6 R/B(2)
OBJECT_ID      = 1990-055D
CENTER_NAME    = EARTH
REF_FRAME      = TEME
TIME_SYSTEM    = UTC
MEAN_ELEMENT_THEORY = SGP/SGP4

EPOCH          = 2025-12-13T21:33:33.809472
MEAN_MOTION    = 15.03082483
ECCENTRICITY   = .00128337
INCLINATION    = 62.7826
RA_OF_ASC_NODE = 185.4792
ARG_OF_PERICENTER = 309.7745
MEAN_ANOMALY   = 50.2223

EPHEMERIS_TYPE = 0
CLASSIFICATION_TYPE = U
NORAD_CAT_ID   = 20666
ELEMENT_SET_NO = 999
REV_AT_EPOCH   = 92529
BSTAR          = .21464021E-3
MEAN_MOTION_DOT = .2716E-4
MEAN_MOTION_DDOT = 0

CCSDS_OMM_VERS = 2.0
CREATION_DATE  = 
ORIGINATOR     = 

OBJECT_NAME    = SL-8 R/B
OBJECT_ID      = 1990-078B
CENTER_NAME    = EARTH
REF_FRAME      = TEME
TIME_SYSTEM    = UTC
MEAN_ELEMENT_THEORY = SGP/SGP4

EPOCH          = 2025-12-14T06:42:58.168224
MEAN_MOTION    = 14.86019801
ECCENTRICITY   = .03716849
INCLINATION    = 82.9047
RA_OF_ASC_NODE = 327.9319
ARG_OF_PERICENTER = 300.7291
MEAN_ANOMALY   = 55.7801

EPHEMERIS_TYPE = 0
CLASSIFICATION_TYPE = U
NORAD_CAT_ID   = 20775
ELEMENT_SET_NO = 999
REV_AT_EPOCH   = 79660
BSTAR          = .77097928E-3
MEAN_MOTION_DOT = .24912E-3
MEAN_MOTION_DDOT = 0

CCSDS_OMM_VERS = 2.0
CREATION_DATE  = 
ORIGINATOR     = 

OBJECT_NAME    = SL-8 R/B
OBJECT_ID      = 1991-006B
CENTER_NAME    = EARTH
REF_FRAME      = TEME
TIME_SYSTEM    = UTC
MEAN_ELEMENT_THEORY = SGP/SGP4

EPOCH          = 2025-12-14T05:07:58.482912
MEAN_MOTION    = 13.77490199
ECCENTRICITY   = .00211879
INCLINATION    = 82.9426
RA_OF_ASC_NODE = 233.6164
ARG_OF_PERICENTER = 275.4989
MEAN_ANOMALY   = 196.7881

EPHEMERIS_TYPE = 0
CLASSIFICATION_TYPE = U
NORAD_CAT_ID   = 21088
ELEMENT_SET_NO = 999
REV_AT_EPOCH   = 75230
BSTAR          = .62806708E-4
MEAN_MOTION_DOT = .78E-6
MEAN_MOTION_DDOT = 0

CCSDS_OMM_VERS = 2.0
CREATION_DATE  = 
ORIGINATOR     = 

OBJECT_NAME    = OKEAN-3
OBJECT_ID      = 1991-039A
CENTER_NAME    = EARTH
REF_FRAME      = TEME
TIME_SYSTEM    = UTC
MEAN_ELEMENT_THEORY = SGP/SGP4

EPOCH          = 2025-12-14T06:41:27.878496
MEAN_MOTION    = 15.04132605
ECCENTRICITY   = .00130597
INCLINATION    = 82.5176
RA_OF_ASC_NODE = 59.5577
ARG_OF_PERICENTER = 260.8121
MEAN_ANOMALY   = 99.1628

EPHEMERIS_TYPE = 0
CLASSIFICATION_TYPE = U
NORAD_CAT_ID   = 21397
ELEMENT_SET_NO = 999
REV_AT_EPOCH   = 85219
BSTAR          = .32689775E-3
MEAN_MOTION_DOT = .4566E-4
MEAN_MOTION_DDOT = 0

CCSDS_OMM_VERS = 2.0
CREATION_DATE  = 
ORIGINATOR     = 

OBJECT_NAME    = COSMOS 2151
OBJECT_ID      = 1991-042A
CENTER_NAME    = EARTH
REF_FRAME      = TEME
TIME_SYSTEM    = UTC
MEAN_ELEMENT_THEORY = SGP/SGP4

EPOCH          = 2025-12-14T06:59:25.812672
MEAN_MOTION    = 14.99693199
ECCENTRICITY   = .00124394
INCLINATION    = 82.4958
RA_OF_ASC_NODE = 166.0079
ARG_OF_PERICENTER = 354.8304
MEAN_ANOMALY   = 5.2789

EPHEMERIS_TYPE = 0
CLASSIFICATION_TYPE = U
NORAD_CAT_ID   = 21422
ELEMENT_SET_NO = 999
REV_AT_EPOCH   = 85039
BSTAR          = .18395052E-3
MEAN_MOTION_DOT = .2298E-4
MEAN_MOTION_DDOT = 0

